{"fetched_at":"2026-07-12T05:53:24.119Z","source":"https://celestrak.org/NORAD/elements/gp.php?NAME=WORLDVIEW&FORMAT=JSON","constellation":"worldview","records":[{"OBJECT_NAME":"WORLDVIEW-1 (WV-1)","OBJECT_ID":"2007-041A","EPOCH":"2026-07-11T20:12:31.379040","CLASSIFICATION_TYPE":"U","MEAN_MOTION":15.24535399,"ECCENTRICITY":0.0001221,"INCLINATION":97.3896,"RA_OF_ASC_NODE":312.2385,"ARG_OF_PERICENTER":224.7123,"MEAN_ANOMALY":135.4017,"EPHEMERIS_TYPE":0,"NORAD_CAT_ID":32060,"ELEMENT_SET_NO":999,"REV_AT_EPOCH":4663,"BSTAR":0.00014248,"MEAN_MOTION_DOT":0.00003435,"MEAN_MOTION_DDOT":0},{"OBJECT_NAME":"WORLDVIEW-2 (WV-2)","OBJECT_ID":"2009-055A","EPOCH":"2026-07-11T20:48:10.758816","CLASSIFICATION_TYPE":"U","MEAN_MOTION":14.37906376,"ECCENTRICITY":0.0005172,"INCLINATION":98.4757,"RA_OF_ASC_NODE":265.9803,"ARG_OF_PERICENTER":137.9533,"MEAN_ANOMALY":222.2052,"EPHEMERIS_TYPE":0,"NORAD_CAT_ID":35946,"ELEMENT_SET_NO":999,"REV_AT_EPOCH":87919,"BSTAR":0.000026289,"MEAN_MOTION_DOT":3.6e-7,"MEAN_MOTION_DDOT":0},{"OBJECT_NAME":"WORLDVIEW-3 (WV-3)","OBJECT_ID":"2014-048A","EPOCH":"2026-07-11T19:52:39.726048","CLASSIFICATION_TYPE":"U","MEAN_MOTION":14.85061044,"ECCENTRICITY":0.0001041,"INCLINATION":97.8558,"RA_OF_ASC_NODE":267.3203,"ARG_OF_PERICENTER":160.726,"MEAN_ANOMALY":199.3994,"EPHEMERIS_TYPE":0,"NORAD_CAT_ID":40115,"ELEMENT_SET_NO":999,"REV_AT_EPOCH":64556,"BSTAR":0.000053157,"MEAN_MOTION_DOT":0.00000401,"MEAN_MOTION_DDOT":0},{"OBJECT_NAME":"WORLDVIEW-2 DEB","OBJECT_ID":"2009-055K","EPOCH":"2026-07-11T04:35:55.944672","CLASSIFICATION_TYPE":"U","MEAN_MOTION":14.58912682,"ECCENTRICITY":0.00092567,"INCLINATION":98.353,"RA_OF_ASC_NODE":286.6084,"ARG_OF_PERICENTER":131.1418,"MEAN_ANOMALY":229.0581,"EPHEMERIS_TYPE":0,"NORAD_CAT_ID":41742,"ELEMENT_SET_NO":999,"REV_AT_EPOCH":52561,"BSTAR":0.00052760762,"MEAN_MOTION_DOT":0.00002426,"MEAN_MOTION_DDOT":0}]}
